STARLINK-6206           
1 56876U 23083A   25256.24585893  .00000968  00000+0  86723-4 0  9994
2 56876  43.0068 326.3595 0001375 270.2773  89.7911 15.02536318124974
STARLINK-6209           
1 56877U 23083B   25256.23808705  .00000950  00000+0  85358-4 0  9998
2 56877  43.0044 326.2982 0001278 268.1323  91.9373 15.02537541124973
STARLINK-6182           
1 56878U 23083C   25256.24474801 -.00000535  00000+0 -24564-4 0  9999
2 56878  43.0046 326.3504 0001074 278.2904  81.7817 15.02536753124972
STARLINK-5707           
1 56879U 23083D   25256.24141917  .00001009  00000+0  89792-4 0  9998
2 56879  43.0054 326.3251 0001360 268.7818  91.2869 15.02535918124972
STARLINK-6177           
1 56880U 23083E   25255.89237847  .00000144  00000+0  25753-4 0  9994
2 56880  43.0048 328.0036 0001271 269.6973  90.3724 15.02534917124923
STARLINK-5853           
1 56881U 23083F   25256.23920090 -.00001199  00000+0 -73650-4 0  9995
2 56881  43.0026 326.3067 0000988 275.0688  85.0042 15.02551068124978
STARLINK-6175           
1 56882U 23083G   25256.22587926  .00000113  00000+0  23476-4 0  9996
2 56882  43.0041 326.2055 0001369 271.4189  88.6496 15.02536100124974
STARLINK-6171           
1 56883U 23083H   25256.23586662  .00000476  00000+0  50301-4 0  9993
2 56883  43.0048 326.2775 0001323 275.5211  84.5480 15.02535918124976
STARLINK-5515           
1 56884U 23083J   25256.21921825  .00000805  00000+0  74693-4 0  9992
2 56884  43.0034 326.1545 0001269 266.7320  93.3378 15.02534730124973
STARLINK-5095           
1 56885U 23083K   25256.23253826  .00000500  00000+0  52118-4 0  9994
2 56885  43.0061 326.2539 0001277 279.0801  80.9896 15.02534911124976
STARLINK-5496           
1 56886U 23083L   25256.28458649 -.00001030  00000+0 -61168-4 0  9996
2 56886  43.0046 325.7860 0001316 270.6523  89.4169 15.02540973124986
STARLINK-6180           
1 56887U 23083M   25255.89016133  .00000015  00000+0  16194-4 0  9990
2 56887  43.0027 327.9848 0001002 264.9944  95.0784 15.02535071124924
STARLINK-6181           
1 56888U 23083N   25256.20478478  .00000149  00000+0  26105-4 0  9992
2 56888  43.0056 326.0437 0002842 279.4057  80.6464 15.02535980124979
STARLINK-6169           
1 56889U 23083P   25256.21478018  .00001086  00000+0  95436-4 0  9998
2 56889  43.0042 326.1213 0001375 270.3730  89.6955 15.02536935124971
STARLINK-5528           
1 56890U 23083Q   25256.20589831 -.00000093  00000+0  81581-5 0  9990
2 56890  43.0041 326.0511 0001058 266.7334  93.3387 15.02535375124977
STARLINK-6213           
1 56891U 23083R   25256.21144777  .00000444  00000+0  47924-4 0  9999
2 56891  43.0041 326.0959 0001409 262.6127  97.4556 15.02538029124971
