[{"OBJECT_NAME":"STARLINK-6206","OBJECT_ID":"2023-083A","EPOCH":"2025-09-13T05:54:02.211552","MEAN_MOTION":15.02536318,"ECCENTRICITY":0.00013759,"INCLINATION":43.0068,"RA_OF_ASC_NODE":326.3595,"ARG_OF_PERICENTER":270.2773,"MEAN_ANOMALY":89.7911,"EPHEMERIS_TYPE":0,"CLASSIFICATION_TYPE":"U","NORAD_CAT_ID":56876,"ELEMENT_SET_NO":999,"REV_AT_EPOCH":12497,"BSTAR":8.6723174e-5,"MEAN_MOTION_DOT":9.68e-6,"MEAN_MOTION_DDOT":0},{"OBJECT_NAME":"STARLINK-6209","OBJECT_ID":"2023-083B","EPOCH":"2025-09-13T05:42:50.721120","MEAN_MOTION":15.02537541,"ECCENTRICITY":0.00012785,"INCLINATION":43.0044,"RA_OF_ASC_NODE":326.2982,"ARG_OF_PERICENTER":268.1323,"MEAN_ANOMALY":91.9373,"EPHEMERIS_TYPE":0,"CLASSIFICATION_TYPE":"U","NORAD_CAT_ID":56877,"ELEMENT_SET_NO":999,"REV_AT_EPOCH":12497,"BSTAR":8.5357699e-5,"MEAN_MOTION_DOT":9.5e-6,"MEAN_MOTION_DDOT":0},{"OBJECT_NAME":"STARLINK-6182","OBJECT_ID":"2023-083C","EPOCH":"2025-09-13T05:52:26.228064","MEAN_MOTION":15.02536753,"ECCENTRICITY":0.00010745,"INCLINATION":43.0046,"RA_OF_ASC_NODE":326.3504,"ARG_OF_PERICENTER":278.2904,"MEAN_ANOMALY":81.7817,"EPHEMERIS_TYPE":0,"CLASSIFICATION_TYPE":"U","NORAD_CAT_ID":56878,"ELEMENT_SET_NO":999,"REV_AT_EPOCH":12497,"BSTAR":-2.4564261e-5,"MEAN_MOTION_DOT":-5.35e-6,"MEAN_MOTION_DDOT":0},{"OBJECT_NAME":"STARLINK-5707","OBJECT_ID":"2023-083D","EPOCH":"2025-09-13T05:47:38.616288","MEAN_MOTION":15.02535918,"ECCENTRICITY":0.00013604,"INCLINATION":43.0054,"RA_OF_ASC_NODE":326.3251,"ARG_OF_PERICENTER":268.7818,"MEAN_ANOMALY":91.2869,"EPHEMERIS_TYPE":0,"CLASSIFICATION_TYPE":"U","NORAD_CAT_ID":56879,"ELEMENT_SET_NO":999,"REV_AT_EPOCH":12497,"BSTAR":8.9792198e-5,"MEAN_MOTION_DOT":1.009e-5,"MEAN_MOTION_DDOT":0},{"OBJECT_NAME":"STARLINK-6177","OBJECT_ID":"2023-083E","EPOCH":"2025-09-12T21:25:01.499808","MEAN_MOTION":15.02534917,"ECCENTRICITY":0.00012715,"INCLINATION":43.0048,"RA_OF_ASC_NODE":328.0036,"ARG_OF_PERICENTER":269.6973,"MEAN_ANOMALY":90.3724,"EPHEMERIS_TYPE":0,"CLASSIFICATION_TYPE":"U","NORAD_CAT_ID":56880,"ELEMENT_SET_NO":999,"REV_AT_EPOCH":12492,"BSTAR":2.5752507e-5,"MEAN_MOTION_DOT":1.44e-6,"MEAN_MOTION_DDOT":0},{"OBJECT_NAME":"STARLINK-5853","OBJECT_ID":"2023-083F","EPOCH":"2025-09-13T05:44:26.957760","MEAN_MOTION":15.02551068,"ECCENTRICITY":9.88e-5,"INCLINATION":43.0026,"RA_OF_ASC_NODE":326.3067,"ARG_OF_PERICENTER":275.0688,"MEAN_ANOMALY":85.0042,"EPHEMERIS_TYPE":0,"CLASSIFICATION_TYPE":"U","NORAD_CAT_ID":56881,"ELEMENT_SET_NO":999,"REV_AT_EPOCH":12497,"BSTAR":-7.3649584e-5,"MEAN_MOTION_DOT":-1.199e-5,"MEAN_MOTION_DDOT":0},{"OBJECT_NAME":"STARLINK-6175","OBJECT_ID":"2023-083G","EPOCH":"2025-09-13T05:25:15.968064","MEAN_MOTION":15.025361,"ECCENTRICITY":0.00013697,"INCLINATION":43.0041,"RA_OF_ASC_NODE":326.2055,"ARG_OF_PERICENTER":271.4189,"MEAN_ANOMALY":88.6496,"EPHEMERIS_TYPE":0,"CLASSIFICATION_TYPE":"U","NORAD_CAT_ID":56882,"ELEMENT_SET_NO":999,"REV_AT_EPOCH":12497,"BSTAR":2.3475977e-5,"MEAN_MOTION_DOT":1.13e-6,"MEAN_MOTION_DDOT":0},{"OBJECT_NAME":"STARLINK-6171","OBJECT_ID":"2023-083H","EPOCH":"2025-09-13T05:39:38.875968","MEAN_MOTION":15.02535918,"ECCENTRICITY":0.00013239,"INCLINATION":43.0048,"RA_OF_ASC_NODE":326.2775,"ARG_OF_PERICENTER":275.5211,"MEAN_ANOMALY":84.548,"EPHEMERIS_TYPE":0,"CLASSIFICATION_TYPE":"U","NORAD_CAT_ID":56883,"ELEMENT_SET_NO":999,"REV_AT_EPOCH":12497,"BSTAR":5.0300728e-5,"MEAN_MOTION_DOT":4.76e-6,"MEAN_MOTION_DDOT":0},{"OBJECT_NAME":"STARLINK-5515","OBJECT_ID":"2023-083J","EPOCH":"2025-09-13T05:15:40.456800","MEAN_MOTION":15.0253473,"ECCENTRICITY":0.00012693,"INCLINATION":43.0034,"RA_OF_ASC_NODE":326.1545,"ARG_OF_PERICENTER":266.732,"MEAN_ANOMALY":93.3378,"EPHEMERIS_TYPE":0,"CLASSIFICATION_TYPE":"U","NORAD_CAT_ID":56884,"ELEMENT_SET_NO":999,"REV_AT_EPOCH":12497,"BSTAR":7.4692854e-5,"MEAN_MOTION_DOT":8.05e-6,"MEAN_MOTION_DDOT":0},{"OBJECT_NAME":"STARLINK-5095","OBJECT_ID":"2023-083K","EPOCH":"2025-09-13T05:34:51.305664","MEAN_MOTION":15.02534911,"ECCENTRICITY":0.00012777,"INCLINATION":43.0061,"RA_OF_ASC_NODE":326.2539,"ARG_OF_PERICENTER":279.0801,"MEAN_ANOMALY":80.9896,"EPHEMERIS_TYPE":0,"CLASSIFICATION_TYPE":"U","NORAD_CAT_ID":56885,"ELEMENT_SET_NO":999,"REV_AT_EPOCH":12497,"BSTAR":5.2117994e-5,"MEAN_MOTION_DOT":5.0e-6,"MEAN_MOTION_DDOT":0},{"OBJECT_NAME":"STARLINK-5496","OBJECT_ID":"2023-083L","EPOCH":"2025-09-13T06:49:48.272736","MEAN_MOTION":15.02540973,"ECCENTRICITY":0.00013169,"INCLINATION":43.0046,"RA_OF_ASC_NODE":325.786,"ARG_OF_PERICENTER":270.6523,"MEAN_ANOMALY":89.4169,"EPHEMERIS_TYPE":0,"CLASSIFICATION_TYPE":"U","NORAD_CAT_ID":56886,"ELEMENT_SET_NO":999,"REV_AT_EPOCH":12498,"BSTAR":-6.1168236e-5,"MEAN_MOTION_DOT":-1.03e-5,"MEAN_MOTION_DDOT":0},{"OBJECT_NAME":"STARLINK-6180","OBJECT_ID":"2023-083M","EPOCH":"2025-09-12T21:21:49.938912","MEAN_MOTION":15.02535071,"ECCENTRICITY":0.00010025,"INCLINATION":43.0027,"RA_OF_ASC_NODE":327.9848,"ARG_OF_PERICENTER":264.9944,"MEAN_ANOMALY":95.0784,"EPHEMERIS_TYPE":0,"CLASSIFICATION_TYPE":"U","NORAD_CAT_ID":56887,"ELEMENT_SET_NO":999,"REV_AT_EPOCH":12492,"BSTAR":1.619387e-5,"MEAN_MOTION_DOT":1.5e-7,"MEAN_MOTION_DDOT":0},{"OBJECT_NAME":"STARLINK-6181","OBJECT_ID":"2023-083N","EPOCH":"2025-09-13T04:54:53.404992","MEAN_MOTION":15.0253598,"ECCENTRICITY":0.00028428,"INCLINATION":43.0056,"RA_OF_ASC_NODE":326.0437,"ARG_OF_PERICENTER":279.4057,"MEAN_ANOMALY":80.6464,"EPHEMERIS_TYPE":0,"CLASSIFICATION_TYPE":"U","NORAD_CAT_ID":56888,"ELEMENT_SET_NO":999,"REV_AT_EPOCH":12497,"BSTAR":2.6104814e-5,"MEAN_MOTION_DOT":1.49e-6,"MEAN_MOTION_DDOT":0},{"OBJECT_NAME":"STARLINK-6169","OBJECT_ID":"2023-083P","EPOCH":"2025-09-13T05:09:17.007552","MEAN_MOTION":15.02536935,"ECCENTRICITY":0.00013756,"INCLINATION":43.0042,"RA_OF_ASC_NODE":326.1213,"ARG_OF_PERICENTER":270.373,"MEAN_ANOMALY":89.6955,"EPHEMERIS_TYPE":0,"CLASSIFICATION_TYPE":"U","NORAD_CAT_ID":56889,"ELEMENT_SET_NO":999,"REV_AT_EPOCH":12497,"BSTAR":9.5435701e-5,"MEAN_MOTION_DOT":1.086e-5,"MEAN_MOTION_DDOT":0},{"OBJECT_NAME":"STARLINK-5528","OBJECT_ID":"2023-083Q","EPOCH":"2025-09-13T04:56:29.613984","MEAN_MOTION":15.02535375,"ECCENTRICITY":0.00010582,"INCLINATION":43.0041,"RA_OF_ASC_NODE":326.0511,"ARG_OF_PERICENTER":266.7334,"MEAN_ANOMALY":93.3387,"EPHEMERIS_TYPE":0,"CLASSIFICATION_TYPE":"U","NORAD_CAT_ID":56890,"ELEMENT_SET_NO":999,"REV_AT_EPOCH":12497,"BSTAR":8.158144e-6,"MEAN_MOTION_DOT":-9.3e-7,"MEAN_MOTION_DDOT":0},{"OBJECT_NAME":"STARLINK-6213","OBJECT_ID":"2023-083R","EPOCH":"2025-09-13T05:04:29.087328","MEAN_MOTION":15.02538029,"ECCENTRICITY":0.00014093,"INCLINATION":43.0041,"RA_OF_ASC_NODE":326.0959,"ARG_OF_PERICENTER":262.6127,"MEAN_ANOMALY":97.4556,"EPHEMERIS_TYPE":0,"CLASSIFICATION_TYPE":"U","NORAD_CAT_ID":56891,"ELEMENT_SET_NO":999,"REV_AT_EPOCH":12497,"BSTAR":4.7924277e-5,"MEAN_MOTION_DOT":4.44e-6,"MEAN_MOTION_DDOT":0}]
